IRIDIUM 113             
1 42803U 17039A   26194.40355448  .00000006  00000+0 -48111-5 0  9998
2 42803  86.3988 311.2213 0002012  90.4531 269.6896 14.34217147474949
NORSAT 2                
1 42828U 17042D   26194.45416414  .00005457  00000+0  23899-3 0  9993
2 42828  97.4046   7.4886 0008350 325.1278  34.9411 15.22407212491735
TECHNOSAT               
1 42829U 17042E   26194.37805133  .00002037  00000+0  14687-3 0  9991
2 42829  97.4311 351.0449 0017599   9.3532 350.8019 15.05104462490648
FLYING LAPTOP           
1 42831U 17042G   26194.51381374  .00002065  00000+0  16438-3 0  9993
2 42831  97.4792 349.0548 0019756  37.9105 322.3507 15.01306088490405
WNISAT 1R               
1 42835U 17042L   26194.40996543  .00000583  00000+0  49071-4 0  9998
2 42835  97.4823 349.5957 0011093  70.3249 289.9172 15.01856565490449
LEMUR-2-GREENBERG       
1 42837U 17042N   26194.47946093  .00009474  00000+0  30775-3 0  9990
2 42837  97.3826  14.9999 0007161 266.6725  93.3697 15.32118737492416
LEMUR-2-FURIAUS         
1 42840U 17042R   26193.44556340  .00010642  00000+0  35675-3 0  9995
2 42840  97.3775  11.8672 0006239 340.6601  19.4403 15.31072029492076
CORVUS BC2              
1 42846U 17042X   26194.49967661  .00001415  00000+0  99805-4 0  9993
2 42846  97.4090 354.8325 0013601  28.6821 331.5152 15.06451798491025
CORVUS BC1              
1 42847U 17042Y   26194.42496946  .00001070  00000+0  76175-4 0  9992
2 42847  97.4115 355.5916 0011784   6.7633 353.3752 15.06614889491048
VRSS-2                  
1 42954U 17060A   26194.46540646  .00001027  00000+0  13798-3 0  9995
2 42954  97.6506 231.0075 0017589  19.2608 340.9266 14.81237802472349
MOHAMMED VI-A           
1 43005U 17070A   26194.49478774  .00000632  00000+0  96608-4 0  9992
2 43005  97.9556 266.4625 0001210  95.4918 264.6431 14.77101933467869
FENGYUN 3D              
1 43010U 17072A   26194.50488207 -.00000167  00000+0 -56902-4 0  9992
2 43010  99.0134 169.4046 0001686  17.8321 342.2913 14.19743524448728
NOAA 20 (JPSS-1)        
1 43013U 17073A   26194.43368407  .00000014  00000+0  27366-4 0  9998
2 43013  98.7773 133.6637 0001325 125.9356 234.1943 14.19516234448193
MAKERSAT 0              
1 43016U 17073D   26193.90601466  .00014826  00000+0  39200-3 0  9992
2 43016  97.4593  76.6362 0105335 180.4050 179.7125 15.32952290470403
RADFXSAT (FOX-1B)       
1 43017U 17073E   26194.06889025  .00003953  00000+0  17410-3 0  9998
2 43017  97.4673  60.7567 0148137 238.8927 119.7700 15.13044164469303
JILIN-1 04              
1 43022U 17074A   26194.48435631  .00008232  00000+0  18814-3 0  9995
2 43022  97.4878 304.8120 0005264 105.0294 255.1537 15.43100508478321
JILIN-1 05              
1 43023U 17074B   26194.47325993  .00004950  00000+0  15163-3 0  9991
2 43023  97.4883 300.9914 0006390 129.4104 230.7705 15.34268091478033
JILIN-1 06              
1 43024U 17074C   26194.44884066  .00003490  00000+0  10855-3 0  9991
2 43024  97.4808 297.9412 0007991 139.3835 220.8005 15.33983512477862
IRIDIUM 116             
1 43072U 17083C   26194.37818356  .00000134  00000+0  40653-4 0  9997
2 43072  86.3985 311.0527 0002439  99.2861 260.8611 14.34217437447925
IRIDIUM 130             
1 43073U 17083D   26194.41624316  .00000131  00000+0  39579-4 0  9996
2 43073  86.3992 311.3147 0002228 100.8989 259.2457 14.34217508447874
LKW-2                   
1 43080U 17084A   26194.51121425  .00007685  00000+0  29535-3 0  9990
2 43080  97.1184 233.0801 0003554 123.5933 236.5646 15.26682448475708
SUPERVIEW-1 03          
1 43099U 18002A   26194.48639883  .00011179  00000+0  26996-3 0  9990
2 43099  97.3137 279.2980 0047047  87.1105 273.5524 15.40173330472411
CARTOSAT-2F             
1 43111U 18004A   26194.48840698  .00003385  00000+0  16377-3 0  9997
2 43111  97.4787 253.8642 0002591 139.0413 221.1016 15.19265611471329
LKW-3                   
1 43146U 18006A   26194.51188568  .00007361  00000+0  21429-3 0  9994
2 43146  97.6626 356.1268 0002807 187.0070 173.1134 15.35728969472757
ASNARO-2                
1 43152U 18007A   26194.60851716  .00005916  00000+0  25897-3 0  9991
2 43152  97.3970 201.1228 0001871  92.8550 267.2901 15.22409964471432
JILIN-1 07              
1 43159U 18008E   26194.49552712  .00005130  00000+0  15258-3 0  9998
2 43159  97.1763 213.7286 0006901 335.2895  24.8017 15.35146420469032
JILIN-1 08              
1 43160U 18008F   26194.51429056  .00003546  00000+0  11009-3 0  9996
2 43160  97.1800 213.0336 0005516 359.1574   0.9659 15.33998284468986
S-NET D                 
1 43186U 18014G   26194.32225034  .00002633  00000+0  13703-3 0  9999
2 43186  97.5339  98.9509 0006359 293.0677  66.9885 15.16907899462725
