OBJECT_NAME,OBJECT_ID,EPOCH,MEAN_MOTION,ECCENTRICITY,INCLINATION,RA_OF_ASC_NODE,ARG_OF_PERICENTER,MEAN_ANOMALY,EPHEMERIS_TYPE,CLASSIFICATION_TYPE,NORAD_CAT_ID,ELEMENT_SET_NO,REV_AT_EPOCH,BSTAR,MEAN_MOTION_DOT,MEAN_MOTION_DDOT
IRIDIUM 113,2017-039A,2026-07-13T09:41:07.107072,14.34217147,.0002012,86.3988,311.2213,90.4531,269.6896,0,U,42803,999,47494,-.48111E-5,.6E-7,0
NORSAT 2,2017-042D,2026-07-13T10:53:59.781696,15.22407212,.000835,97.4046,7.4886,325.1278,34.9411,0,U,42828,999,49173,.23899E-3,.5457E-4,0
TECHNOSAT,2017-042E,2026-07-13T09:04:23.634912,15.05104462,.0017599,97.4311,351.0449,9.3532,350.8019,0,U,42829,999,49064,.14687E-3,.2037E-4,0
FLYING LAPTOP,2017-042G,2026-07-13T12:19:53.507136,15.01306088,.0019756,97.4792,349.0548,37.9105,322.3507,0,U,42831,999,49040,.16438E-3,.2065E-4,0
WNISAT 1R,2017-042L,2026-07-13T09:50:21.013152,15.01856565,.0011093,97.4823,349.5957,70.3249,289.9172,0,U,42835,999,49044,.49071E-4,.583E-5,0
LEMUR-2-GREENBERG,2017-042N,2026-07-13T11:30:25.424352,15.32118737,.0007161,97.3826,14.9999,266.6725,93.3697,0,U,42837,999,49241,.30775E-3,.9474E-4,0
LEMUR-2-FURIAUS,2017-042R,2026-07-12T10:41:36.677760,15.31072029,.00062398,97.3775,11.8672,340.6601,19.4403,0,U,42840,999,49207,.35675373E-3,.10642E-3,0
CORVUS BC2,2017-042X,2026-07-13T11:59:32.059104,15.06451798,.0013601,97.4090,354.8325,28.6821,331.5152,0,U,42846,999,49102,.99805E-4,.1415E-4,0
CORVUS BC1,2017-042Y,2026-07-13T10:11:57.361344,15.06614889,.0011784,97.4115,355.5916,6.7633,353.3752,0,U,42847,999,49104,.76175E-4,.107E-4,0
VRSS-2,2017-060A,2026-07-13T11:10:11.118144,14.81237802,.0017589,97.6506,231.0075,19.2608,340.9266,0,U,42954,999,47234,.13798E-3,.1027E-4,0
MOHAMMED VI-A,2017-070A,2026-07-13T11:52:29.660736,14.77101933,.000121,97.9556,266.4625,95.4918,264.6431,0,U,43005,999,46786,.96608E-4,.632E-5,0
FENGYUN 3D,2017-072A,2026-07-13T12:07:01.810848,14.19743524,.0001686,99.0134,169.4046,17.8321,342.2913,0,U,43010,999,44872,-.56902E-4,-.167E-5,0
NOAA 20 (JPSS-1),2017-073A,2026-07-13T10:24:30.303648,14.19516234,.0001325,98.7773,133.6637,125.9356,234.1943,0,U,43013,999,44819,.27366E-4,.14E-6,0
MAKERSAT 0,2017-073D,2026-07-12T21:44:39.666624,15.32952290,.01053353,97.4593,76.6362,180.4050,179.7125,0,U,43016,999,47040,.3919963E-3,.14826E-3,0
RADFXSAT (FOX-1B),2017-073E,2026-07-13T01:39:12.117600,15.13044164,.01481375,97.4673,60.7567,238.8927,119.7700,0,U,43017,999,46930,.17409731E-3,.3953E-4,0
JILIN-1 04,2017-074A,2026-07-13T11:37:28.385184,15.43100508,.0005264,97.4878,304.8120,105.0294,255.1537,0,U,43022,999,47832,.18814E-3,.8232E-4,0
JILIN-1 05,2017-074B,2026-07-13T11:21:29.657952,15.34268091,.000639,97.4883,300.9914,129.4104,230.7705,0,U,43023,999,47803,.15163E-3,.495E-4,0
JILIN-1 06,2017-074C,2026-07-13T10:46:19.833024,15.33983512,.0007991,97.4808,297.9412,139.3835,220.8005,0,U,43024,999,47786,.10855E-3,.349E-4,0
IRIDIUM 116,2017-083C,2026-07-13T09:04:35.059584,14.34217437,.0002439,86.3985,311.0527,99.2861,260.8611,0,U,43072,999,44792,.40653E-4,.134E-5,0
IRIDIUM 130,2017-083D,2026-07-13T09:59:23.409024,14.34217508,.0002228,86.3992,311.3147,100.8989,259.2457,0,U,43073,999,44787,.39579E-4,.131E-5,0
LKW-2,2017-084A,2026-07-13T12:16:08.911200,15.26682448,.0003554,97.1184,233.0801,123.5933,236.5646,0,U,43080,999,47570,.29535E-3,.7685E-4,0
SUPERVIEW-1 03,2018-002A,2026-07-13T11:40:24.858912,15.40173330,.0047047,97.3137,279.2980,87.1105,273.5524,0,U,43099,999,47241,.26996E-3,.11179E-3,0
CARTOSAT-2F,2018-004A,2026-07-13T11:43:18.363072,15.19265611,.0002591,97.4787,253.8642,139.0413,221.1016,0,U,43111,999,47132,.16377E-3,.3385E-4,0
LKW-3,2018-006A,2026-07-13T12:17:06.922752,15.35728969,.0002807,97.6626,356.1268,187.0070,173.1134,0,U,43146,999,47275,.21429E-3,.7361E-4,0
ASNARO-2,2018-007A,2026-07-13T14:36:15.882624,15.22409964,.0001871,97.3970,201.1228,92.8550,267.2901,0,U,43152,999,47143,.25897E-3,.5916E-4,0
JILIN-1 07,2018-008E,2026-07-13T11:53:33.543168,15.35146420,.0006901,97.1763,213.7286,335.2895,24.8017,0,U,43159,999,46903,.15258E-3,.513E-4,0
JILIN-1 08,2018-008F,2026-07-13T12:20:34.704384,15.33998284,.0005516,97.1800,213.0336,359.1574,0.9659,0,U,43160,999,46898,.11009E-3,.3546E-4,0
S-NET D,2018-014G,2026-07-13T07:44:02.429376,15.16907899,.0006359,97.5339,98.9509,293.0677,66.9885,0,U,43186,999,46272,.13703E-3,.2633E-4,0
